{"type": "FeatureCollection", "features": [ {"type": "Feature", "properties": {"norad_id": 31820, "name": "FENGYUN 1C DEB", "group": "fengyun-1c-debris", "lat": 68.96806296987869, "lon": -6.919982488439101, "alt_km": 551.6510670937878, "timestamp": "2025-12-04T23:34:06.006923+00:00", "meta": {"OBJECT_NAME": "FENGYUN 1C DEB", "OBJECT_ID": "1999-025CHJ", "EPOCH": "2025-12-02T05:05:48.392160", "MEAN_MOTION": 14.91825704, "ECCENTRICITY": 0.0151194, "INCLINATION": 98.9593, "RA_OF_ASC_NODE": 145.7098, "ARG_OF_PERICENTER": 45.7561, "MEAN_ANOMALY": 315.595, "EPHEMERIS_TYPE": 0, "CLASSIFICATION_TYPE": "U", "NORAD_CAT_ID": 31820, "ELEMENT_SET_NO": 999, "REV_AT_EPOCH": 98099, "BSTAR": 0.0010528, "MEAN_MOTION_DOT": 0.00013194, "MEAN_MOTION_DDOT": 0}, "tle": {"line1": "1 31820U 99025CHJ 25336.21236565  .00013194  00000+0  10528-2 0  9993", "line2": "2 31820  98.9593 145.7098 0151194  45.7561 315.5950 14.91825704980996"}}, "geometry": {"type": "Point", "coordinates": [-6.919982488439101, 68.96806296987869]}}, {"type": "Feature", "properties": {"norad_id": 31821, "name": "FENGYUN 1C DEB", "group": "fengyun-1c-debris", "lat": 79.32119605612468, "lon": 174.76570675089744, "alt_km": 633.2452679413773, "timestamp": "2025-12-04T23:34:06.006933+00:00", "meta": {"OBJECT_NAME": "FENGYUN 1C DEB", "OBJECT_ID": "1999-025CHK", "EPOCH": "2025-12-03T22:12:36.893664", "MEAN_MOTION": 14.41372879, "ECCENTRICITY": 0.0221705, "INCLINATION": 98.156, "RA_OF_ASC_NODE": 223.2667, "ARG_OF_PERICENTER": 41.081, "MEAN_ANOMALY": 320.6839, "EPHEMERIS_TYPE": 0, "CLASSIFICATION_TYPE": "U", "NORAD_CAT_ID": 31821, "ELEMENT_SET_NO": 999, "REV_AT_EPOCH": 93534, "BSTAR": 0.011009, "MEAN_MOTION_DOT": 0.00048066, "MEAN_MOTION_DDOT": 0}, "tle": {"line1": "1 31821U 99025CHK 25337.92542701  .00048066  00000+0  11009-1 0  9995", "line2": "2 31821  98.1560 223.2667 0221705  41.0810 320.6839 14.41372879935346"}}, "geometry": {"type": "Point", "coordinates": [174.76570675089744, 79.32119605612468]}}, {"type": "Feature", "properties": {"norad_id": 31823, "name": "FENGYUN 1C DEB", "group": "fengyun-1c-debris", "lat": -57.637423310075576, "lon": 79.32970419767439, "alt_km": 668.757184994648, "timestamp": "2025-12-04T23:34:06.006943+00:00", "meta": {"OBJECT_NAME": "FENGYUN 1C DEB", "OBJECT_ID": "1999-025CHM", "EPOCH": "2025-12-02T11:12:25.018272", "MEAN_MOTION": 14.6544758, "ECCENTRICITY": 0.0037092, "INCLINATION": 99.5128, "RA_OF_ASC_NODE": 61.0788, "ARG_OF_PERICENTER": 250.3625, "MEAN_ANOMALY": 109.3568, "EPHEMERIS_TYPE": 0, "CLASSIFICATION_TYPE": "U", "NORAD_CAT_ID": 31823, "ELEMENT_SET_NO": 999, "REV_AT_EPOCH": 96567, "BSTAR": 0.0016235378, "MEAN_MOTION_DOT": 8.822e-05, "MEAN_MOTION_DDOT": 0}, "tle": {"line1": "1 31823U 99025CHM 25336.46695623  .00008822  00000+0  16235-2 0  9990", "line2": "2 31823  99.5128  61.0788 0037092 250.3625 109.3568 14.65447580965676"}}, "geometry": {"type": "Point", "coordinates": [79.32970419767439, -57.637423310075576]}}, {"type": "Feature", "properties": {"norad_id": 31825, "name": "FENGYUN 1C DEB", "group": "fengyun-1c-debris", "lat": 19.992867074100875, "lon": 161.93794649768773, "alt_km": 931.217331317348, "timestamp": "2025-12-04T23:34:06.006953+00:00", "meta": {"OBJECT_NAME": "FENGYUN 1C DEB", "OBJECT_ID": "1999-025CHP", "EPOCH": "2025-12-04T04:14:32.350848", "MEAN_MOTION": 14.21598255, "ECCENTRICITY": 0.01661837, "INCLINATION": 98.5899, "RA_OF_ASC_NODE": 338.0014, "ARG_OF_PERICENTER": 3.1976, "MEAN_ANOMALY": 357.0224, "EPHEMERIS_TYPE": 0, "CLASSIFICATION_TYPE": "U", "NORAD_CAT_ID": 31825, "ELEMENT_SET_NO": 999, "REV_AT_EPOCH": 95500, "BSTAR": 0.0014244143, "MEAN_MOTION_DOT": 3.551e-05, "MEAN_MOTION_DDOT": 0}, "tle": {"line1": "1 31825U 99025CHP 25338.17676332  .00003551  00000+0  14244-2 0  9990", "line2": "2 31825  98.5899 338.0014 0166183   3.1976 357.0224 14.21598255955003"}}, "geometry": {"type": "Point", "coordinates": [161.93794649768773, 19.992867074100875]}}, {"type": "Feature", "properties": {"norad_id": 31826, "name": "FENGYUN 1C DEB", "group": "fengyun-1c-debris", "lat": 81.11062204248141, "lon": -105.73807773142411, "alt_km": 869.4808111307875, "timestamp": "2025-12-04T23:34:06.006964+00:00", "meta": {"OBJECT_NAME": "FENGYUN 1C DEB", "OBJECT_ID": "1999-025CHQ", "EPOCH": "2025-12-01T11:16:10.269984", "MEAN_MOTION": 14.19245438, "ECCENTRICITY": 0.01235722, "INCLINATION": 98.6258, "RA_OF_ASC_NODE": 326.8919, "ARG_OF_PERICENTER": 222.0054, "MEAN_ANOMALY": 291.027, "EPHEMERIS_TYPE": 0, "CLASSIFICATION_TYPE": "U", "NORAD_CAT_ID": 31826, "ELEMENT_SET_NO": 999, "REV_AT_EPOCH": 95654, "BSTAR": 0.00042487612, "MEAN_MOTION_DOT": 9.18e-06, "MEAN_MOTION_DDOT": 0}, "tle": {"line1": "1 31826U 99025CHQ 25335.46956331  .00000918  00000+0  42488-3 0  9996", "line2": "2 31826  98.6258 326.8919 0123572 222.0054 291.0270 14.19245438956544"}}, "geometry": {"type": "Point", "coordinates": [-105.73807773142411, 81.11062204248141]}}, {"type": "Feature", "properties": {"norad_id": 31829, "name": "FENGYUN 1C DEB", "group": "fengyun-1c-debris", "lat": 49.126136981164095, "lon": 138.85574656163334, "alt_km": 1015.993856848223, "timestamp": "2025-12-04T23:34:06.006974+00:00", "meta": {"OBJECT_NAME": "FENGYUN 1C DEB", "OBJECT_ID": "1999-025CHT", "EPOCH": "2025-12-03T06:39:41.312736", "MEAN_MOTION": 13.8866372, "ECCENTRICITY": 0.0168978, "INCLINATION": 98.8353, "RA_OF_ASC_NODE": 147.5933, "ARG_OF_PERICENTER": 190.204, "MEAN_ANOMALY": 344.9165, "EPHEMERIS_TYPE": 0, "CLASSIFICATION_TYPE": "U", "NORAD_CAT_ID": 31829, "ELEMENT_SET_NO": 999, "REV_AT_EPOCH": 94016, "BSTAR": 0.00067055, "MEAN_MOTION_DOT": 8.64e-06, "MEAN_MOTION_DDOT": 0}, "tle": {"line1": "1 31829U 99025CHT 25337.27756149  .00000864  00000+0  67055-3 0  9992", "line2": "2 31829  98.8353 147.5933 0168978 190.2040 344.9165 13.88663720940164"}}, "geometry": {"type": "Point", "coordinates": [138.85574656163334, 49.126136981164095]}}, {"type": "Feature", "properties": {"norad_id": 31830, "name": "FENGYUN 1C DEB", "group": "fengyun-1c-debris", "lat": -24.97092340286559, "lon": -99.44752424715479, "alt_km": 1042.2801397563917, "timestamp": "2025-12-04T23:34:06.006984+00:00", "meta": {"OBJECT_NAME": "FENGYUN 1C DEB", "OBJECT_ID": "1999-025CHU", "EPOCH": "2025-12-02T06:36:37.177056", "MEAN_MOTION": 13.83353348, "ECCENTRICITY": 0.0181639, "INCLINATION": 99.1637, "RA_OF_ASC_NODE": 82.2262, "ARG_OF_PERICENTER": 342.8195, "MEAN_ANOMALY": 72.1801, "EPHEMERIS_TYPE": 0, "CLASSIFICATION_TYPE": "U", "NORAD_CAT_ID": 31830, "ELEMENT_SET_NO": 999, "REV_AT_EPOCH": 92595, "BSTAR": 0.0020067, "MEAN_MOTION_DOT": 2.461e-05, "MEAN_MOTION_DDOT": 0}, "tle": {"line1": "1 31830U 99025CHU 25336.27543029  .00002461  00000+0  20067-2 0  9990", "line2": "2 31830  99.1637  82.2262 0181639 342.8195  72.1801 13.83353348925954"}}, "geometry": {"type": "Point", "coordinates": [-99.44752424715479, -24.97092340286559]}}, {"type": "Feature", "properties": {"norad_id": 31834, "name": "FENGYUN 1C DEB", "group": "fengyun-1c-debris", "lat": 14.537456830007928, "lon": 21.986618772466915, "alt_km": 833.7428966639645, "timestamp": "2025-12-04T23:34:06.006994+00:00", "meta": {"OBJECT_NAME": "FENGYUN 1C DEB", "OBJECT_ID": "1999-025CHY", "EPOCH": "2025-12-03T10:51:38.608416", "MEAN_MOTION": 14.03141122, "ECCENTRICITY": 0.01625764, "INCLINATION": 98.3695, "RA_OF_ASC_NODE": 198.3911, "ARG_OF_PERICENTER": 103.7388, "MEAN_ANOMALY": 258.1935, "EPHEMERIS_TYPE": 0, "CLASSIFICATION_TYPE": "U", "NORAD_CAT_ID": 31834, "ELEMENT_SET_NO": 999, "REV_AT_EPOCH": 63580, "BSTAR": 0.00028609708, "MEAN_MOTION_DOT": 4.63e-06, "MEAN_MOTION_DDOT": 0}, "tle": {"line1": "1 31834U 99025CHY 25337.45253019  .00000463  00000+0  28610-3 0  9995", "line2": "2 31834  98.3695 198.3911 0162576 103.7388 258.1935 14.03141122635804"}}, "geometry": {"type": "Point", "coordinates": [21.986618772466915, 14.537456830007928]}}, {"type": "Feature", "properties": {"norad_id": 31837, "name": "FENGYUN 1C DEB", "group": "fengyun-1c-debris", "lat": 25.916108113459853, "lon": 50.45850062194473, "alt_km": 558.5267139231491, "timestamp": "2025-12-04T23:34:06.007004+00:00", "meta": {"OBJECT_NAME": "FENGYUN 1C DEB", "OBJECT_ID": "1999-025CJB", "EPOCH": "2025-12-02T11:29:46.361184", "MEAN_MOTION": 14.81941802, "ECCENTRICITY": 0.00948496, "INCLINATION": 98.1019, "RA_OF_ASC_NODE": 51.8949, "ARG_OF_PERICENTER": 51.0437, "MEAN_ANOMALY": 309.918, "EPHEMERIS_TYPE": 0, "CLASSIFICATION_TYPE": "U", "NORAD_CAT_ID": 31837, "ELEMENT_SET_NO": 999, "REV_AT_EPOCH": 98207, "BSTAR": 0.0012645817, "MEAN_MOTION_DOT": 0.00010787, "MEAN_MOTION_DDOT": 0}, "tle": {"line1": "1 31837U 99025CJB 25336.47900881  .00010787  00000+0  12646-2 0  9996", "line2": "2 31837  98.1019  51.8949 0094849  51.0437 309.9180 14.81941802982076"}}, "geometry": {"type": "Point", "coordinates": [50.45850062194473, 25.916108113459853]}}, {"type": "Feature", "properties": {"norad_id": 31838, "name": "FENGYUN 1C DEB", "group": "fengyun-1c-debris", "lat": 6.908908519403716, "lon": -149.15880071368645, "alt_km": 807.7897276356998, "timestamp": "2025-12-04T23:34:06.007014+00:00", "meta": {"OBJECT_NAME": "FENGYUN 1C DEB", "OBJECT_ID": "1999-025CJC", "EPOCH": "2025-11-30T23:01:09.079104", "MEAN_MOTION": 14.21077351, "ECCENTRICITY": 0.00389588, "INCLINATION": 98.7199, "RA_OF_ASC_NODE": 25.8052, "ARG_OF_PERICENTER": 128.7083, "MEAN_ANOMALY": 354.7559, "EPHEMERIS_TYPE": 0, "CLASSIFICATION_TYPE": "U", "NORAD_CAT_ID": 31838, "ELEMENT_SET_NO": 999, "REV_AT_EPOCH": 64409, "BSTAR": 0.00075198552, "MEAN_MOTION_DOT": 1.602e-05, "MEAN_MOTION_DDOT": 0}, "tle": {"line1": "1 31838U 99025CJC 25334.95913286  .00001602  00000+0  75199-3 0  9990", "line2": "2 31838  98.7199  25.8052 0038958 128.7083 354.7559 14.21077351644094"}}, "geometry": {"type": "Point", "coordinates": [-149.15880071368645, 6.908908519403716]}}]}